ATLAS CENTAUR 2         
1 00694U 63047A   26171.45988245  .00000848  00000+0  88115-4 0  9997
2 00694  30.3587 341.0931 0546005 266.3690  87.4341 14.12524868146166
THOR AGENA D R/B        
1 00733U 64002A   26171.08730830  .00000092  00000+0  50193-4 0  9993
2 00733  99.1153 189.9758 0032186 321.9802  37.9109 14.34066354252975
SL-3 R/B                
1 00877U 64053B   26171.34087819  .00000039  00000+0  31839-4 0  9996
2 00877  65.0776  30.2658 0080954 260.1229  99.0725 14.61427795281792
SL-8 R/B                
1 02802U 67045B   26171.40744869  .00000172  00000+0  55142-4 0  9993
2 02802  74.0095 156.2439 0063315 139.7859 220.8009 14.45683390103861
SL-8 R/B                
1 03230U 68040B   26171.30966101  .00002007  00000+0  14802-3 0  9995
2 03230  74.0309 103.9051 0025973 256.5750 103.2543 15.03830802105439
OAO 2                   
1 03597U 68110A   26171.36582830  .00000147  00000+0  44650-4 0  9996
2 03597  34.9945  51.9301 0006143 296.6747  63.3315 14.47353113 33980
ISIS 1                  
1 03669U 69009A   26171.37783306  .00000047  00000+0  33808-4 0  9998
2 03669  88.4426 144.0490 1706318 241.7756 100.0821 11.30434104360134
SERT 2                  
1 04327U 70009A   26171.43080145  .00000008  00000+0  67682-4 0  9994
2 04327  99.2841 108.9699 0003929 263.0931 205.2164 13.58739486793845
SL-3 R/B                
1 05118U 71028B   26171.43356853  .00044626  00000+0  36800-3 0  9998
2 05118  81.2330 284.2794 0014087 268.2280  91.7365 15.70016407  4756
ASTEX 1                 
1 05560U 71089A   26171.45181061  .00000260  00000+0  66146-4 0  9998
2 05560  92.6996 184.9072 0017990  96.6331 263.6924 14.50853638877203
SL-8 R/B                
1 05730U 71119B   26171.07520018  .00002617  00000+0  13624-3 0  9998
2 05730  73.8878 344.0478 0543726 289.4327  64.8851 14.39521149670217
OAO 3 (COPERNICUS)      
1 06153U 72065A   26171.47049711  .00000202  00000+0  45684-4 0  9999
2 06153  35.0063  71.6957 0007324 279.7806 246.6682 14.60061684861223
ATLAS CENTAUR R/B       
1 06155U 72065B   26171.38538159  .00000750  00000+0  10485-3 0  9998
2 06155  35.0020  63.7919 0033227 156.1715 204.0531 14.77926028856467
