[
    {
        "OBJECT_NAME": "ATLAS CENTAUR 2",
        "OBJECT_ID": "1963-047A",
        "EPOCH": "2026-06-20T11:02:13.843680",
        "MEAN_MOTION": 14.12524868,
        "ECCENTRICITY": 0.0546005,
        "INCLINATION": 30.3587,
        "RA_OF_ASC_NODE": 341.0931,
        "ARG_OF_PERICENTER": 266.369,
        "MEAN_ANOMALY": 87.4341,
        "EPHEMERIS_TYPE": 0,
        "CLASSIFICATION_TYPE": "U",
        "NORAD_CAT_ID": 694,
        "ELEMENT_SET_NO": 999,
        "REV_AT_EPOCH": 14616,
        "BSTAR": 8.8115e-05,
        "MEAN_MOTION_DOT": 8.48e-06,
        "MEAN_MOTION_DDOT": 0
    },
    {
        "OBJECT_NAME": "THOR AGENA D R/B",
        "OBJECT_ID": "1964-002A",
        "EPOCH": "2026-06-20T02:05:43.437120",
        "MEAN_MOTION": 14.34066354,
        "ECCENTRICITY": 0.00321869,
        "INCLINATION": 99.1153,
        "RA_OF_ASC_NODE": 189.9758,
        "ARG_OF_PERICENTER": 321.9802,
        "MEAN_ANOMALY": 37.9109,
        "EPHEMERIS_TYPE": 0,
        "CLASSIFICATION_TYPE": "U",
        "NORAD_CAT_ID": 733,
        "ELEMENT_SET_NO": 999,
        "REV_AT_EPOCH": 25297,
        "BSTAR": 5.0192916e-05,
        "MEAN_MOTION_DOT": 9.2e-07,
        "MEAN_MOTION_DDOT": 0
    },
    {
        "OBJECT_NAME": "SL-3 R/B",
        "OBJECT_ID": "1964-053B",
        "EPOCH": "2026-06-20T08:10:51.875616",
        "MEAN_MOTION": 14.61427795,
        "ECCENTRICITY": 0.0080954,
        "INCLINATION": 65.0776,
        "RA_OF_ASC_NODE": 30.2658,
        "ARG_OF_PERICENTER": 260.1229,
        "MEAN_ANOMALY": 99.0725,
        "EPHEMERIS_TYPE": 0,
        "CLASSIFICATION_TYPE": "U",
        "NORAD_CAT_ID": 877,
        "ELEMENT_SET_NO": 999,
        "REV_AT_EPOCH": 28179,
        "BSTAR": 3.1839e-05,
        "MEAN_MOTION_DOT": 3.9e-07,
        "MEAN_MOTION_DDOT": 0
    },
    {
        "OBJECT_NAME": "SL-8 R/B",
        "OBJECT_ID": "1967-045B",
        "EPOCH": "2026-06-20T09:46:43.566816",
        "MEAN_MOTION": 14.4568339,
        "ECCENTRICITY": 0.0063315,
        "INCLINATION": 74.0095,
        "RA_OF_ASC_NODE": 156.2439,
        "ARG_OF_PERICENTER": 139.7859,
        "MEAN_ANOMALY": 220.8009,
        "EPHEMERIS_TYPE": 0,
        "CLASSIFICATION_TYPE": "U",
        "NORAD_CAT_ID": 2802,
        "ELEMENT_SET_NO": 999,
        "REV_AT_EPOCH": 10386,
        "BSTAR": 5.5142e-05,
        "MEAN_MOTION_DOT": 1.72e-06,
        "MEAN_MOTION_DDOT": 0
    },
    {
        "OBJECT_NAME": "SL-8 R/B",
        "OBJECT_ID": "1968-040B",
        "EPOCH": "2026-06-20T07:25:54.711264",
        "MEAN_MOTION": 15.03830802,
        "ECCENTRICITY": 0.0025973,
        "INCLINATION": 74.0309,
        "RA_OF_ASC_NODE": 103.9051,
        "ARG_OF_PERICENTER": 256.575,
        "MEAN_ANOMALY": 103.2543,
        "EPHEMERIS_TYPE": 0,
        "CLASSIFICATION_TYPE": "U",
        "NORAD_CAT_ID": 3230,
        "ELEMENT_SET_NO": 999,
        "REV_AT_EPOCH": 10543,
        "BSTAR": 0.00014802,
        "MEAN_MOTION_DOT": 2.007e-05,
        "MEAN_MOTION_DDOT": 0
    },
    {
        "OBJECT_NAME": "OAO 2",
        "OBJECT_ID": "1968-110A",
        "EPOCH": "2026-06-20T08:46:47.565120",
        "MEAN_MOTION": 14.47353113,
        "ECCENTRICITY": 0.0006143,
        "INCLINATION": 34.9945,
        "RA_OF_ASC_NODE": 51.9301,
        "ARG_OF_PERICENTER": 296.6747,
        "MEAN_ANOMALY": 63.3315,
        "EPHEMERIS_TYPE": 0,
        "CLASSIFICATION_TYPE": "U",
        "NORAD_CAT_ID": 3597,
        "ELEMENT_SET_NO": 999,
        "REV_AT_EPOCH": 3398,
        "BSTAR": 4.465e-05,
        "MEAN_MOTION_DOT": 1.47e-06,
        "MEAN_MOTION_DDOT": 0
    },
    {
        "OBJECT_NAME": "ISIS 1",
        "OBJECT_ID": "1969-009A",
        "EPOCH": "2026-06-20T09:04:04.776384",
        "MEAN_MOTION": 11.30434104,
        "ECCENTRICITY": 0.1706318,
        "INCLINATION": 88.4426,
        "RA_OF_ASC_NODE": 144.049,
        "ARG_OF_PERICENTER": 241.7756,
        "MEAN_ANOMALY": 100.0821,
        "EPHEMERIS_TYPE": 0,
        "CLASSIFICATION_TYPE": "U",
        "NORAD_CAT_ID": 3669,
        "ELEMENT_SET_NO": 999,
        "REV_AT_EPOCH": 36013,
        "BSTAR": 3.3808e-05,
        "MEAN_MOTION_DOT": 4.7e-07,
        "MEAN_MOTION_DDOT": 0
    },
    {
        "OBJECT_NAME": "SERT 2",
        "OBJECT_ID": "1970-009A",
        "EPOCH": "2026-06-20T10:20:21.245280",
        "MEAN_MOTION": 13.58739486,
        "ECCENTRICITY": 0.0003929,
        "INCLINATION": 99.2841,
        "RA_OF_ASC_NODE": 108.9699,
        "ARG_OF_PERICENTER": 263.0931,
        "MEAN_ANOMALY": 205.2164,
        "EPHEMERIS_TYPE": 0,
        "CLASSIFICATION_TYPE": "U",
        "NORAD_CAT_ID": 4327,
        "ELEMENT_SET_NO": 999,
        "REV_AT_EPOCH": 79384,
        "BSTAR": 6.7682e-05,
        "MEAN_MOTION_DOT": 8e-08,
        "MEAN_MOTION_DDOT": 0
    },
    {
        "OBJECT_NAME": "SL-3 R/B",
        "OBJECT_ID": "1971-028B",
        "EPOCH": "2026-06-20T10:24:20.320992",
        "MEAN_MOTION": 15.70016407,
        "ECCENTRICITY": 0.0014087,
        "INCLINATION": 81.233,
        "RA_OF_ASC_NODE": 284.2794,
        "ARG_OF_PERICENTER": 268.228,
        "MEAN_ANOMALY": 91.7365,
        "EPHEMERIS_TYPE": 0,
        "CLASSIFICATION_TYPE": "U",
        "NORAD_CAT_ID": 5118,
        "ELEMENT_SET_NO": 999,
        "REV_AT_EPOCH": 475,
        "BSTAR": 0.000368,
        "MEAN_MOTION_DOT": 0.00044626,
        "MEAN_MOTION_DDOT": 0
    },
    {
        "OBJECT_NAME": "ASTEX 1",
        "OBJECT_ID": "1971-089A",
        "EPOCH": "2026-06-20T10:50:36.436704",
        "MEAN_MOTION": 14.50853638,
        "ECCENTRICITY": 0.001799,
        "INCLINATION": 92.6996,
        "RA_OF_ASC_NODE": 184.9072,
        "ARG_OF_PERICENTER": 96.6331,
        "MEAN_ANOMALY": 263.6924,
        "EPHEMERIS_TYPE": 0,
        "CLASSIFICATION_TYPE": "U",
        "NORAD_CAT_ID": 5560,
        "ELEMENT_SET_NO": 999,
        "REV_AT_EPOCH": 87720,
        "BSTAR": 6.6146e-05,
        "MEAN_MOTION_DOT": 2.6e-06,
        "MEAN_MOTION_DDOT": 0
    },
    {
        "OBJECT_NAME": "SL-8 R/B",
        "OBJECT_ID": "1971-119B",
        "EPOCH": "2026-06-20T01:48:17.295552",
        "MEAN_MOTION": 14.39521149,
        "ECCENTRICITY": 0.0543726,
        "INCLINATION": 73.8878,
        "RA_OF_ASC_NODE": 344.0478,
        "ARG_OF_PERICENTER": 289.4327,
        "MEAN_ANOMALY": 64.8851,
        "EPHEMERIS_TYPE": 0,
        "CLASSIFICATION_TYPE": "U",
        "NORAD_CAT_ID": 5730,
        "ELEMENT_SET_NO": 999,
        "REV_AT_EPOCH": 67021,
        "BSTAR": 0.0001362375,
        "MEAN_MOTION_DOT": 2.617e-05,
        "MEAN_MOTION_DDOT": 0
    },
    {
        "OBJECT_NAME": "OAO 3 (COPERNICUS)",
        "OBJECT_ID": "1972-065A",
        "EPOCH": "2026-06-20T11:17:30.950304",
        "MEAN_MOTION": 14.60061684,
        "ECCENTRICITY": 0.0007324,
        "INCLINATION": 35.0063,
        "RA_OF_ASC_NODE": 71.6957,
        "ARG_OF_PERICENTER": 279.7806,
        "MEAN_ANOMALY": 246.6682,
        "EPHEMERIS_TYPE": 0,
        "CLASSIFICATION_TYPE": "U",
        "NORAD_CAT_ID": 6153,
        "ELEMENT_SET_NO": 999,
        "REV_AT_EPOCH": 86122,
        "BSTAR": 4.5684e-05,
        "MEAN_MOTION_DOT": 2.02e-06,
        "MEAN_MOTION_DDOT": 0
    },
    {
        "OBJECT_NAME": "ATLAS CENTAUR R/B",
        "OBJECT_ID": "1972-065B",
        "EPOCH": "2026-06-20T09:14:56.969376",
        "MEAN_MOTION": 14.77926028,
        "ECCENTRICITY": 0.0033227,
        "INCLINATION": 35.002,
        "RA_OF_ASC_NODE": 63.7919,
        "ARG_OF_PERICENTER": 156.1715,
        "MEAN_ANOMALY": 204.0531,
        "EPHEMERIS_TYPE": 0,
        "CLASSIFICATION_TYPE": "U",
        "NORAD_CAT_ID": 6155,
        "ELEMENT_SET_NO": 999,
        "REV_AT_EPOCH": 85646,
        "BSTAR": 0.00010485,
        "MEAN_MOTION_DOT": 7.5e-06,
        "MEAN_MOTION_DDOT": 0
    }
]